HULIANWANG DIGUI-17     
1 62977U 25030G   26064.58792079 -.00000101  00000+0  48847-4 0  9993
2 62977  50.0047 247.1376 0000760 158.8076 201.2828 13.29338199 52083
HULIANWANG DIGUI-18     
1 62978U 25030H   26064.57954762 -.00000088  00000+0  77491-4 0  9993
2 62978  50.0051 247.1042 0000770 159.2268 200.8635 13.29338271 52080
HULIANWANG DIGUI-19     
1 62979U 25030J   26064.61275761 -.00000088  00000+0  77257-4 0  9994
2 62979  50.0036 247.2331 0000819 154.9443 205.1469 13.29341469 52083
HULIANWANG DIGUI-20     
1 63687U 25086A   26064.59926711  .00000074  00000+0  13774-3 0  9994
2 63687  86.5126 348.0142 0001741  91.6411 268.4923 13.24420232 41166
HULIANWANG DIGUI-21     
1 63688U 25086B   26064.60675882  .00000055  00000+0  94139-4 0  9991
2 63688  86.5154 348.0410 0001632  94.5640 265.5680 13.24421802 41152
HULIANWANG DIGUI-22     
1 63689U 25086C   26064.61432287  .00000061  00000+0  10903-3 0  9996
2 63689  86.5119 347.9415 0001806  91.7703 268.3638 13.24421565 41159
HULIANWANG DIGUI-23     
1 63690U 25086D   26064.62938060  .00000060  00000+0  10677-3 0  9996
2 63690  86.5160 348.0731 0001749  88.1046 272.0288 13.24422261 41153
HULIANWANG DIGUI-24     
1 63691U 25086E   26064.63699335  .00000078  00000+0  14730-3 0  9990
2 63691  86.5167 348.0972 0001785  92.3639 267.7700 13.24420383 41156
HULIANWANG DIGUI-25     
1 63692U 25086F   26064.64452499  .00000087  00000+0  16812-3 0  9993
2 63692  86.5105 347.9163 0001684  91.3347 268.7980 13.24421798 41154
HULIANWANG DIGUI-26     
1 63693U 25086G   26064.62175282  .00000054  00000+0  91422-4 0  9999
2 63693  86.5154 348.0506 0001765  96.4380 263.6955 13.24421299 41157
HULIANWANG DIGUI-27     
1 63694U 25086H   26064.57661118  .00000093  00000+0  18174-3 0  9997
2 63694  86.5115 347.9737 0001789  91.4064 268.7275 13.24420190 41148
HULIANWANG DIGUI-28     
1 63695U 25086J   26064.59164314  .00000086  00000+0  16697-3 0  9996
2 63695  86.5080 347.8730 0001788  91.4273 268.7066 13.24421545 41146
HULIANWANG DIGUI-29     
1 63696U 25086K   26064.58416720  .00000089  00000+0  17249-3 0  9994
2 63696  86.5108 347.9557 0001672  91.8827 268.2499 13.24420356 41141
HULIANWANG DIGUI-30     
1 64283U 25121A   26064.59153578  .00000053  00000+0  89200-4 0  9995
2 64283  86.4948  48.5079 0001991  78.4803 281.6555 13.24423403 36442
HULIANWANG DIGUI-31     
1 64284U 25121B   26064.58420428  .00000044  00000+0  67989-4 0  9996
2 64284  86.4969  48.5609 0002011  78.6501 281.4859 13.24419579 36440
HULIANWANG DIGUI-32     
1 64285U 25121C   26064.57629235  .00000028  00000+0  30383-4 0  9993
2 64285  86.4910  48.3929 0002009  80.7797 279.3564 13.24425210 36446
