[{"OBJECT_NAME":"HULIANWANG DIGUI-17","OBJECT_ID":"2025-030G","EPOCH":"2026-03-05T14:06:36.356256","MEAN_MOTION":13.29338199,"ECCENTRICITY":7.607e-5,"INCLINATION":50.0047,"RA_OF_ASC_NODE":247.1376,"ARG_OF_PERICENTER":158.8076,"MEAN_ANOMALY":201.2828,"EPHEMERIS_TYPE":0,"CLASSIFICATION_TYPE":"U","NORAD_CAT_ID":62977,"ELEMENT_SET_NO":999,"REV_AT_EPOCH":5208,"BSTAR":4.8846999e-5,"MEAN_MOTION_DOT":-1.01e-6,"MEAN_MOTION_DDOT":0},{"OBJECT_NAME":"HULIANWANG DIGUI-18","OBJECT_ID":"2025-030H","EPOCH":"2026-03-05T13:54:32.914368","MEAN_MOTION":13.29338271,"ECCENTRICITY":7.704e-5,"INCLINATION":50.0051,"RA_OF_ASC_NODE":247.1042,"ARG_OF_PERICENTER":159.2268,"MEAN_ANOMALY":200.8635,"EPHEMERIS_TYPE":0,"CLASSIFICATION_TYPE":"U","NORAD_CAT_ID":62978,"ELEMENT_SET_NO":999,"REV_AT_EPOCH":5208,"BSTAR":7.7490906e-5,"MEAN_MOTION_DOT":-8.8e-7,"MEAN_MOTION_DDOT":0},{"OBJECT_NAME":"HULIANWANG DIGUI-19","OBJECT_ID":"2025-030J","EPOCH":"2026-03-05T14:42:22.257504","MEAN_MOTION":13.29341469,"ECCENTRICITY":8.199e-5,"INCLINATION":50.0036,"RA_OF_ASC_NODE":247.2331,"ARG_OF_PERICENTER":154.9443,"MEAN_ANOMALY":205.1469,"EPHEMERIS_TYPE":0,"CLASSIFICATION_TYPE":"U","NORAD_CAT_ID":62979,"ELEMENT_SET_NO":999,"REV_AT_EPOCH":5208,"BSTAR":7.7256596e-5,"MEAN_MOTION_DOT":-8.8e-7,"MEAN_MOTION_DDOT":0},{"OBJECT_NAME":"HULIANWANG DIGUI-20","OBJECT_ID":"2025-086A","EPOCH":"2026-03-05T14:22:56.678304","MEAN_MOTION":13.24420232,"ECCENTRICITY":0.00017416,"INCLINATION":86.5126,"RA_OF_ASC_NODE":348.0142,"ARG_OF_PERICENTER":91.6411,"MEAN_ANOMALY":268.4923,"EPHEMERIS_TYPE":0,"CLASSIFICATION_TYPE":"U","NORAD_CAT_ID":63687,"ELEMENT_SET_NO":999,"REV_AT_EPOCH":4116,"BSTAR":0.00013774171,"MEAN_MOTION_DOT":7.4e-7,"MEAN_MOTION_DDOT":0},{"OBJECT_NAME":"HULIANWANG DIGUI-21","OBJECT_ID":"2025-086B","EPOCH":"2026-03-05T14:33:43.962048","MEAN_MOTION":13.24421802,"ECCENTRICITY":0.00016321,"INCLINATION":86.5154,"RA_OF_ASC_NODE":348.041,"ARG_OF_PERICENTER":94.564,"MEAN_ANOMALY":265.568,"EPHEMERIS_TYPE":0,"CLASSIFICATION_TYPE":"U","NORAD_CAT_ID":63688,"ELEMENT_SET_NO":999,"REV_AT_EPOCH":4115,"BSTAR":9.4139161e-5,"MEAN_MOTION_DOT":5.5e-7,"MEAN_MOTION_DDOT":0},{"OBJECT_NAME":"HULIANWANG DIGUI-22","OBJECT_ID":"2025-086C","EPOCH":"2026-03-05T14:44:37.495968","MEAN_MOTION":13.24421565,"ECCENTRICITY":0.00018064,"INCLINATION":86.5119,"RA_OF_ASC_NODE":347.9415,"ARG_OF_PERICENTER":91.7703,"MEAN_ANOMALY":268.3638,"EPHEMERIS_TYPE":0,"CLASSIFICATION_TYPE":"U","NORAD_CAT_ID":63689,"ELEMENT_SET_NO":999,"REV_AT_EPOCH":4115,"BSTAR":0.00010902631,"MEAN_MOTION_DOT":6.1e-7,"MEAN_MOTION_DDOT":0},{"OBJECT_NAME":"HULIANWANG DIGUI-23","OBJECT_ID":"2025-086D","EPOCH":"2026-03-05T15:06:18.483840","MEAN_MOTION":13.24422261,"ECCENTRICITY":0.00017493,"INCLINATION":86.516,"RA_OF_ASC_NODE":348.0731,"ARG_OF_PERICENTER":88.1046,"MEAN_ANOMALY":272.0288,"EPHEMERIS_TYPE":0,"CLASSIFICATION_TYPE":"U","NORAD_CAT_ID":63690,"ELEMENT_SET_NO":999,"REV_AT_EPOCH":4115,"BSTAR":0.0001067697,"MEAN_MOTION_DOT":6.0e-7,"MEAN_MOTION_DDOT":0},{"OBJECT_NAME":"HULIANWANG DIGUI-24","OBJECT_ID":"2025-086E","EPOCH":"2026-03-05T15:17:16.225440","MEAN_MOTION":13.24420383,"ECCENTRICITY":0.00017853,"INCLINATION":86.5167,"RA_OF_ASC_NODE":348.0972,"ARG_OF_PERICENTER":92.3639,"MEAN_ANOMALY":267.77,"EPHEMERIS_TYPE":0,"CLASSIFICATION_TYPE":"U","NORAD_CAT_ID":63691,"ELEMENT_SET_NO":999,"REV_AT_EPOCH":4115,"BSTAR":0.00014730307,"MEAN_MOTION_DOT":7.8e-7,"MEAN_MOTION_DDOT":0},{"OBJECT_NAME":"HULIANWANG DIGUI-25","OBJECT_ID":"2025-086F","EPOCH":"2026-03-05T15:28:06.959136","MEAN_MOTION":13.24421798,"ECCENTRICITY":0.0001684,"INCLINATION":86.5105,"RA_OF_ASC_NODE":347.9163,"ARG_OF_PERICENTER":91.3347,"MEAN_ANOMALY":268.798,"EPHEMERIS_TYPE":0,"CLASSIFICATION_TYPE":"U","NORAD_CAT_ID":63692,"ELEMENT_SET_NO":999,"REV_AT_EPOCH":4115,"BSTAR":0.00016811974,"MEAN_MOTION_DOT":8.7e-7,"MEAN_MOTION_DDOT":0},{"OBJECT_NAME":"HULIANWANG DIGUI-26","OBJECT_ID":"2025-086G","EPOCH":"2026-03-05T14:55:19.443648","MEAN_MOTION":13.24421299,"ECCENTRICITY":0.00017654,"INCLINATION":86.5154,"RA_OF_ASC_NODE":348.0506,"ARG_OF_PERICENTER":96.438,"MEAN_ANOMALY":263.6955,"EPHEMERIS_TYPE":0,"CLASSIFICATION_TYPE":"U","NORAD_CAT_ID":63693,"ELEMENT_SET_NO":999,"REV_AT_EPOCH":4115,"BSTAR":9.1421783e-5,"MEAN_MOTION_DOT":5.4e-7,"MEAN_MOTION_DDOT":0},{"OBJECT_NAME":"HULIANWANG DIGUI-27","OBJECT_ID":"2025-086H","EPOCH":"2026-03-05T13:50:19.205952","MEAN_MOTION":13.2442019,"ECCENTRICITY":0.00017895,"INCLINATION":86.5115,"RA_OF_ASC_NODE":347.9737,"ARG_OF_PERICENTER":91.4064,"MEAN_ANOMALY":268.7275,"EPHEMERIS_TYPE":0,"CLASSIFICATION_TYPE":"U","NORAD_CAT_ID":63694,"ELEMENT_SET_NO":999,"REV_AT_EPOCH":4114,"BSTAR":0.00018173733,"MEAN_MOTION_DOT":9.3e-7,"MEAN_MOTION_DDOT":0},{"OBJECT_NAME":"HULIANWANG DIGUI-28","OBJECT_ID":"2025-086J","EPOCH":"2026-03-05T14:11:57.967296","MEAN_MOTION":13.24421545,"ECCENTRICITY":0.00017888,"INCLINATION":86.508,"RA_OF_ASC_NODE":347.873,"ARG_OF_PERICENTER":91.4273,"MEAN_ANOMALY":268.7066,"EPHEMERIS_TYPE":0,"CLASSIFICATION_TYPE":"U","NORAD_CAT_ID":63695,"ELEMENT_SET_NO":999,"REV_AT_EPOCH":4114,"BSTAR":0.00016696794,"MEAN_MOTION_DOT":8.6e-7,"MEAN_MOTION_DDOT":0},{"OBJECT_NAME":"HULIANWANG DIGUI-29","OBJECT_ID":"2025-086K","EPOCH":"2026-03-05T14:01:12.046080","MEAN_MOTION":13.24420356,"ECCENTRICITY":0.00016728,"INCLINATION":86.5108,"RA_OF_ASC_NODE":347.9557,"ARG_OF_PERICENTER":91.8827,"MEAN_ANOMALY":268.2499,"EPHEMERIS_TYPE":0,"CLASSIFICATION_TYPE":"U","NORAD_CAT_ID":63696,"ELEMENT_SET_NO":999,"REV_AT_EPOCH":4114,"BSTAR":0.00017248551,"MEAN_MOTION_DOT":8.9e-7,"MEAN_MOTION_DDOT":0},{"OBJECT_NAME":"HULIANWANG DIGUI-30","OBJECT_ID":"2025-121A","EPOCH":"2026-03-05T14:11:48.691392","MEAN_MOTION":13.24423403,"ECCENTRICITY":0.00019914,"INCLINATION":86.4948,"RA_OF_ASC_NODE":48.5079,"ARG_OF_PERICENTER":78.4803,"MEAN_ANOMALY":281.6555,"EPHEMERIS_TYPE":0,"CLASSIFICATION_TYPE":"U","NORAD_CAT_ID":64283,"ELEMENT_SET_NO":999,"REV_AT_EPOCH":3644,"BSTAR":8.9199702e-5,"MEAN_MOTION_DOT":5.3e-7,"MEAN_MOTION_DDOT":0},{"OBJECT_NAME":"HULIANWANG DIGUI-31","OBJECT_ID":"2025-121B","EPOCH":"2026-03-05T14:01:15.249792","MEAN_MOTION":13.24419579,"ECCENTRICITY":0.00020115,"INCLINATION":86.4969,"RA_OF_ASC_NODE":48.5609,"ARG_OF_PERICENTER":78.6501,"MEAN_ANOMALY":281.4859,"EPHEMERIS_TYPE":0,"CLASSIFICATION_TYPE":"U","NORAD_CAT_ID":64284,"ELEMENT_SET_NO":999,"REV_AT_EPOCH":3644,"BSTAR":6.7988912e-5,"MEAN_MOTION_DOT":4.4e-7,"MEAN_MOTION_DDOT":0},{"OBJECT_NAME":"HULIANWANG DIGUI-32","OBJECT_ID":"2025-121C","EPOCH":"2026-03-05T13:49:51.659040","MEAN_MOTION":13.2442521,"ECCENTRICITY":0.00020092,"INCLINATION":86.491,"RA_OF_ASC_NODE":48.3929,"ARG_OF_PERICENTER":80.7797,"MEAN_ANOMALY":279.3564,"EPHEMERIS_TYPE":0,"CLASSIFICATION_TYPE":"U","NORAD_CAT_ID":64285,"ELEMENT_SET_NO":999,"REV_AT_EPOCH":3644,"BSTAR":3.0382585e-5,"MEAN_MOTION_DOT":2.8e-7,"MEAN_MOTION_DDOT":0}]
